STARLINK-34274          
1 64348U 25126E   25225.90805193  .00006268  00000+0  53252-3 0  9993
2 64348  70.0015 198.5321 0003450 266.6018  93.4747 14.98338800  9557
STARLINK-34301          
1 64349U 25126F   25225.93306486  .00005595  00000+0  47645-3 0  9999
2 64349  70.0008 198.2159 0003511 265.7289  94.3469 14.98322160  9568
STARLINK-34425          
1 64350U 25126G   25225.95388206 -.00073327  00000+0 -61848-2 0  9993
2 64350  69.9997 198.2862 0003616 281.4562  78.6191 14.98435651  9567
STARLINK-34389          
1 64351U 25126H   25225.91667824  .00023375  00000+0  19605-2 0  9996
2 64351  70.0016 198.3029 0003137 266.4064 319.3548 14.98326094  5889
STARLINK-34385          
1 64352U 25126J   25225.90408012  .00000574  00000+0  54760-4 0  9997
2 64352  70.0014 198.5165 0003021 271.0793  89.0021 14.99144157 10763
STARLINK-34431          
1 64353U 25126K   25225.92903944  .00003058  00000+0  26395-3 0  9996
2 64353  70.0012 198.2047 0003742 275.9886  84.0846 14.98330784  9562
STARLINK-34473          
1 64354U 25126L   25225.94139590  .00005889  00000+0  50115-3 0  9998
2 64354  70.0017 198.2466 0003055 274.5870  85.4940 14.98310340  9564
STARLINK-34270          
1 64355U 25126M   25225.91667824  .00022492  00000+0  18866-2 0  9997
2 64355  70.0016 198.3307 0003461 266.6442 297.5965 14.98332874  5944
STARLINK-34397          
1 64356U 25126N   25225.91667824  .00026947  00000+0  22576-2 0  9990
2 64356  70.0013 198.4795 0003188 266.3275 162.8605 14.98328567  5951
STARLINK-34454          
1 64357U 25126P   25225.64136855  .00004698  00000+0  39286-3 0  9992
2 64357  70.0005 199.1999 0003091 271.5122  88.5683 14.99151485  9519
STARLINK-34436          
1 64358U 25126Q   25225.65365163  .00002700  00000+0  23393-3 0  9994
2 64358  70.0013 198.8405 0003234 281.7865  78.2931 14.98337538  9520
STARLINK-34291          
1 64359U 25126R   25225.93740276 -.00003774  00000+0 -30863-3 0  9992
2 64359  70.0012 198.2241 0003192 269.5407  90.5387 14.98336066  9562
STARLINK-34458          
1 64360U 25126S   25225.94905280  .00007118  00000+0  59106-3 0  9998
2 64360  70.0015 198.2664 0003044 268.8034  91.2776 14.99151061  9561
STARLINK-34243          
1 64361U 25126T   25225.94975824  .00005339  00000+0  45481-3 0  9994
2 64361  70.0018 198.2727 0003203 267.7252  92.3540 14.98337944  9568
STARLINK-34335          
1 64362U 25126U   25225.65846560  .00003214  00000+0  27132-3 0  9990
2 64362  70.0005 198.8629 0003220 274.8255  85.2537 14.99147527  9523
STARLINK-34408          
1 64363U 25126V   25225.18301000  .00000418  00000+0  42017-4 0  9997
2 64363  70.0012 200.0107 0003481 280.9673  79.1095 14.99148338  9454
STARLINK-34476          
1 64364U 25126W   25225.91667824  .00024673  00000+0  20683-2 0  9990
2 64364  70.0014 198.2794 0003217 264.5860 344.6766 14.98329991  5940
STARLINK-34479          
1 64365U 25126X   25225.91220905  .00001863  00000+0  16385-3 0  9997
2 64365  69.9976 198.5403 0002366 276.6448  83.4442 14.98335437  9557
STARLINK-34484          
1 64366U 25126Y   25225.65350463  .00004898  00000+0  41799-3 0  9990
2 64366  70.0014 198.8407 0002718 272.7194  87.3654 14.98330435 10730
STARLINK-34483          
1 64367U 25126Z   25225.92487792  .00004713  00000+0  40261-3 0  9996
2 64367  70.0014 198.1813 0003030 270.7636  89.3176 14.98324901  9563
STARLINK-34457          
1 64368U 25126AA  25225.96227891  .00004749  00000+0  40543-3 0  9995
2 64368  70.0015 198.3134 0003026 270.0197  90.0615 14.98339171  9565
STARLINK-34444          
1 64369U 25126AB  25225.63331096  .00005466  00000+0  45594-3 0  9991
2 64369  70.0003 199.1702 0003813 265.3717  94.7007 14.99140324  9514
STARLINK-11732 [DTC]    
1 64370U 25127A   25225.80813977  .00286049  00000+0  15797-2 0  9995
2 64370  42.9992 257.9717 0001092 301.9490  58.1274 15.78029850 10804
STARLINK-11731 [DTC]    
1 64371U 25127B   25225.91667824 -.00868744  00000+0 -62676-2 0  9994
2 64371  42.9997 257.2599 0001521 270.9298   6.5023 15.75017601  6025
STARLINK-11746 [DTC]    
1 64372U 25127C   25225.79838528  .00286002  00000+0  15819-2 0  9998
2 64372  42.9991 257.8937 0000664 328.7286  31.3545 15.77994772 10809
STARLINK-11748 [DTC]    
1 64373U 25127D   25225.81267346  .00266848  00000+0  20051-2 0  9996
2 64373  42.9987 258.0097 0001876 302.6948  57.3738 15.70981533 10803
STARLINK-11739 [DTC]    
1 64374U 25127E   25225.79350367  .00286469  00000+0  15890-2 0  9996
2 64374  42.9982 257.8549 0000584 324.4854  35.5978 15.77929738 10801
STARLINK-11738 [DTC]    
1 64375U 25127F   25225.81177110  .00181473  00000+0  13853-2 0  9999
2 64375  42.9992 258.0026 0000893  41.4327 318.6608 15.70870894 10806
STARLINK-11745 [DTC]    
1 64376U 25127G   25224.13318795 -.00434804  00000+0 -26941-2 0  9993
2 64376  42.9955 267.7604 0000784 152.4917 207.5994 15.77283470 10542
STARLINK-11742 [DTC]    
1 64377U 25127H   25225.91667824 -.00032145  00000+0 -24796-3 0  9990
2 64377  42.9993 257.1418 0001736 267.7888  56.5075 15.70841408  6019
STARLINK-11711 [DTC]    
1 64378U 25127J   25225.91667824 -.00845993  00000+0 -57726-2 0  9992
2 64378  42.9998 256.7627 0001589 273.0935 203.7402 15.76212477 10931
STARLINK-11743 [DTC]    
1 64379U 25127K   25225.80645331  .00189079  00000+0  14375-2 0  9997
2 64379  42.9983 257.9607 0001303 287.0142  73.0583 15.70943566 10804
STARLINK-11744 [DTC]    
1 64380U 25127L   25225.79052554  .00191721  00000+0  14609-2 0  9993
2 64380  42.9977 257.8332 0000953 293.8221  66.2547 15.70880962 10800
STARLINK-11692 [DTC]    
1 64381U 25127M   25225.91667824 -.00043753  00000+0 -33908-3 0  9997
2 64381  42.9994 256.8479 0001746 262.7366 181.7990 15.70852594  6032
STARLINK-11740 [DTC]    
1 64382U 25127N   25225.91667824 -.00118568  00000+0 -93173-3 0  9995
2 64382  42.9998 256.6241 0001373 260.6779 274.0308 15.70891306  5967
STARLINK-34299          
1 64383U 25127P   25225.83272298  .00022845  00000+0  83681-3 0  9997
2 64383  42.9990 274.0292 0000438 273.2725  86.8076 15.27592592 10629
STARLINK-34271          
1 64384U 25127Q   25225.82115507  .00017194  00000+0  63255-3 0  9992
2 64384  42.9984 273.9367 0001529 275.3976  84.6701 15.27597725 10676
STARLINK-34100          
1 64385U 25127R   25225.82501278  .00024390  00000+0  89265-3 0  9992
2 64385  43.0010 273.9712 0000887 282.4644  77.6108 15.27589130 10629
STARLINK-34269          
1 64386U 25127S   25225.84413668  .00013578  00000+0  50188-3 0  9998
2 64386  43.0006 273.2481 0001112 267.7514  92.3211 15.27589285 10681
STARLINK-34351          
1 64387U 25127T   25225.84285672  .00021795  00000+0  79928-3 0  9994
2 64387  43.0008 273.2359 0001167 291.1382  68.9345 15.27576314 10688
STARLINK-34198          
1 64388U 25127U   25225.84158989  .00034418  00000+0  12548-2 0  9995
2 64388  43.0006 273.2314 0001532 266.9480  93.1197 15.27570342 10683
STARLINK-34279          
1 64389U 25127V   25225.83914434  .00019615  00000+0  72014-3 0  9997
2 64389  42.9981 274.0782 0001943 271.7190  88.3439 15.27591525 10670
STARLINK-34292          
1 64390U 25127W   25225.49036738  .00012814  00000+0  47406-3 0  9994
2 64390  42.9986 275.7527 0001463 273.8079  86.2606 15.27600531 10624
STARLINK-34278          
1 64391U 25127X   25225.84670575  .00016480  00000+0  60664-3 0  9991
2 64391  43.0031 273.2681 0001747 271.6429  88.4222 15.27602550 10689
STARLINK-33802          
1 64392U 25127Y   25225.82886802  .00032471  00000+0  11841-2 0  9992
2 64392  42.9996 273.9997 0001348 271.6721  88.3977 15.27586161 10727
ZHANGHENG 1-02 (CSES-2) 
1 64393U 25128A   25213.58820123  .00000236  00000+0  13793-4 0  9992
2 64393  97.3215 343.5384 0012004 135.7758 224.4439 15.20682373  7346
STARLINK-34419          
1 64412U 25129A   25225.91667824  .00075483  00000+0  61378-2 0  9998
2 64412  70.0001 238.4929 0002595 278.1411 328.8735 14.99129417  5940
STARLINK-34275          
1 64413U 25129B   25225.91667824  .00081265  00000+0  66069-2 0  9996
2 64413  70.0003 238.3660 0003695 274.0320  94.4008 14.99098225  5750
STARLINK-34225          
1 64414U 25129C   25225.91667824  .00070081  00000+0  57076-2 0  9999
2 64414  70.0002 238.5431 0003265 268.5663 296.5427 14.99100541  5855
STARLINK-34422          
1 64415U 25129D   25225.91667824  .00080096  00000+0  66515-2 0  9995
2 64415  70.0008 238.4020 0003568 278.4111  58.2593 14.98285852  5944
STARLINK-34514          
1 64416U 25129E   25225.91667824  .00069716  00000+0  56785-2 0  9990
2 64416  69.9999 238.2050 0003063 268.8075 246.5038 14.99098966  5949
STARLINK-34487          
1 64417U 25129F   25225.91667824  .00083577  00000+0  67940-2 0  9997
2 64417  70.0000 238.2282 0003520 276.4029 216.3664 14.99089638  5907
STARLINK-34461          
1 64418U 25129G   25225.91667824  .00062999  00000+0  52398-2 0  9994
2 64418  70.0006 238.4998 0001972 244.8974   0.8673 14.98335230  5959
STARLINK-34512          
1 64419U 25129H   25225.46004158  .00005189  00000+0  43308-3 0  9990
2 64419  69.9999 239.5876 0003579 268.8963  91.1787 14.99150802 10039
STARLINK-34503          
1 64420U 25129J   25225.91667824  .00075977  00000+0  61804-2 0  9999
2 64420  70.0006 238.4625 0003658 271.9282   7.1915 14.99109389  5948
STARLINK-34498          
1 64421U 25129K   25225.91667824  .00081263  00000+0  66061-2 0  9995
2 64421  70.0003 238.3851 0003304 269.0219  83.6535 14.99102650  5943
STARLINK-34434          
1 64422U 25129L   25225.91667824  .00072404  00000+0  60198-2 0  9998
2 64422  70.0005 238.5025 0003137 269.9209 336.7412 14.98288630  5907
STARLINK-34467          
1 64423U 25129M   25225.91667824  .00080580  00000+0  65530-2 0  9998
2 64423  70.0000 238.3229 0003129 280.3726 127.5081 14.99093044  5901
STARLINK-34468          
1 64424U 25129N   25225.91667824  .00071126  00000+0  59140-2 0  9995
2 64424  70.0006 238.5250 0003707 273.7248 309.5808 14.98292535  5804
